{"fetched_at":"2026-07-13T07:47:49.217Z","source":"https://celestrak.org/NORAD/elements/gp.php?GROUP=globalstar&FORMAT=JSON","constellation":"globalstar","records":[{"OBJECT_NAME":"GLOBALSTAR M069","OBJECT_ID":"2007-020C","EPOCH":"2026-07-12T08:57:43.735968","CLASSIFICATION_TYPE":"U","MEAN_MOTION":12.23472156,"ECCENTRICITY":0.00017246,"INCLINATION":52.0008,"RA_OF_ASC_NODE":180.8387,"ARG_OF_PERICENTER":204.1103,"MEAN_ANOMALY":304.271,"EPHEMERIS_TYPE":0,"NORAD_CAT_ID":31573,"ELEMENT_SET_NO":999,"REV_AT_EPOCH":88188,"BSTAR":0.00016106423,"MEAN_MOTION_DOT":-7.5e-7,"MEAN_MOTION_DDOT":0},{"OBJECT_NAME":"GLOBALSTAR M072","OBJECT_ID":"2007-020D","EPOCH":"2026-07-12T17:20:39.666048","CLASSIFICATION_TYPE":"U","MEAN_MOTION":11.91658683,"ECCENTRICITY":0.0001654,"INCLINATION":51.9946,"RA_OF_ASC_NODE":32.2631,"ARG_OF_PERICENTER":30.4008,"MEAN_ANOMALY":50.059,"EPHEMERIS_TYPE":0,"NORAD_CAT_ID":31574,"ELEMENT_SET_NO":999,"REV_AT_EPOCH":87802,"BSTAR":0.00011186,"MEAN_MOTION_DOT":-7.6e-7,"MEAN_MOTION_DDOT":0},{"OBJECT_NAME":"GLOBALSTAR M066","OBJECT_ID":"2007-048C","EPOCH":"2026-07-12T20:25:51.123360","CLASSIFICATION_TYPE":"U","MEAN_MOTION":12.30389166,"ECCENTRICITY":0.0005631,"INCLINATION":51.9611,"RA_OF_ASC_NODE":344.239,"ARG_OF_PERICENTER":97.0286,"MEAN_ANOMALY":66.934,"EPHEMERIS_TYPE":0,"NORAD_CAT_ID":32265,"ELEMENT_SET_NO":999,"REV_AT_EPOCH":86338,"BSTAR":0.00024796,"MEAN_MOTION_DOT":-6.5e-7,"MEAN_MOTION_DDOT":0},{"OBJECT_NAME":"GLOBALSTAR M079","OBJECT_ID":"2010-054A","EPOCH":"2026-07-12T17:11:50.638848","CLASSIFICATION_TYPE":"U","MEAN_MOTION":12.62266402,"ECCENTRICITY":0.000111,"INCLINATION":52.0051,"RA_OF_ASC_NODE":30.9548,"ARG_OF_PERICENTER":73.5532,"MEAN_ANOMALY":5.0835,"EPHEMERIS_TYPE":0,"NORAD_CAT_ID":37188,"ELEMENT_SET_NO":999,"REV_AT_EPOCH":72577,"BSTAR":0.0000025791,"MEAN_MOTION_DOT":-0.00000103,"MEAN_MOTION_DDOT":0},{"OBJECT_NAME":"GLOBALSTAR M074","OBJECT_ID":"2010-054B","EPOCH":"2026-07-12T17:50:28.165056","CLASSIFICATION_TYPE":"U","MEAN_MOTION":12.62262035,"ECCENTRICITY":0.0000869,"INCLINATION":52.0029,"RA_OF_ASC_NODE":30.1345,"ARG_OF_PERICENTER":90.1164,"MEAN_ANOMALY":350.4825,"EPHEMERIS_TYPE":0,"NORAD_CAT_ID":37189,"ELEMENT_SET_NO":999,"REV_AT_EPOCH":72638,"BSTAR":0.000036171,"MEAN_MOTION_DOT":-9.7e-7,"MEAN_MOTION_DDOT":0},{"OBJECT_NAME":"GLOBALSTAR M076","OBJECT_ID":"2010-054C","EPOCH":"2026-07-12T18:28:41.710080","CLASSIFICATION_TYPE":"U","MEAN_MOTION":12.62262273,"ECCENTRICITY":0.0001095,"INCLINATION":52.0044,"RA_OF_ASC_NODE":30.2594,"ARG_OF_PERICENTER":86.1566,"MEAN_ANOMALY":355.0315,"EPHEMERIS_TYPE":0,"NORAD_CAT_ID":37190,"ELEMENT_SET_NO":999,"REV_AT_EPOCH":72610,"BSTAR":0.000085428,"MEAN_MOTION_DOT":-8.8e-7,"MEAN_MOTION_DDOT":0},{"OBJECT_NAME":"GLOBALSTAR M077","OBJECT_ID":"2010-054D","EPOCH":"2026-07-12T19:10:47.430912","CLASSIFICATION_TYPE":"U","MEAN_MOTION":11.67547657,"ECCENTRICITY":0.0002304,"INCLINATION":51.995,"RA_OF_ASC_NODE":114.2878,"ARG_OF_PERICENTER":220.4693,"MEAN_ANOMALY":171.6828,"EPHEMERIS_TYPE":0,"NORAD_CAT_ID":37191,"ELEMENT_SET_NO":999,"REV_AT_EPOCH":72413,"BSTAR":-0.00022604,"MEAN_MOTION_DOT":-9e-7,"MEAN_MOTION_DDOT":0},{"OBJECT_NAME":"GLOBALSTAR M075","OBJECT_ID":"2010-054E","EPOCH":"2026-07-12T14:36:57.339936","CLASSIFICATION_TYPE":"U","MEAN_MOTION":12.62267765,"ECCENTRICITY":0.0000709,"INCLINATION":51.9949,"RA_OF_ASC_NODE":72.7889,"ARG_OF_PERICENTER":60.9768,"MEAN_ANOMALY":309.0281,"EPHEMERIS_TYPE":0,"NORAD_CAT_ID":37192,"ELEMENT_SET_NO":999,"REV_AT_EPOCH":72515,"BSTAR":0.0000024744,"MEAN_MOTION_DOT":-0.00000103,"MEAN_MOTION_DDOT":0},{"OBJECT_NAME":"GLOBALSTAR M073","OBJECT_ID":"2010-054F","EPOCH":"2026-07-12T21:08:24.729792","CLASSIFICATION_TYPE":"U","MEAN_MOTION":12.62266872,"ECCENTRICITY":0.0001087,"INCLINATION":52.008,"RA_OF_ASC_NODE":346.0817,"ARG_OF_PERICENTER":93.1551,"MEAN_ANOMALY":71.1005,"EPHEMERIS_TYPE":0,"NORAD_CAT_ID":37193,"ELEMENT_SET_NO":999,"REV_AT_EPOCH":72717,"BSTAR":-0.0000035579,"MEAN_MOTION_DOT":-0.00000104,"MEAN_MOTION_DDOT":0},{"OBJECT_NAME":"GLOBALSTAR M083","OBJECT_ID":"2011-033A","EPOCH":"2026-07-12T11:30:26.105184","CLASSIFICATION_TYPE":"U","MEAN_MOTION":12.62264008,"ECCENTRICITY":0.00008294,"INCLINATION":51.987,"RA_OF_ASC_NODE":295.4988,"ARG_OF_PERICENTER":103.0342,"MEAN_ANOMALY":337.7221,"EPHEMERIS_TYPE":0,"NORAD_CAT_ID":37739,"ELEMENT_SET_NO":999,"REV_AT_EPOCH":69614,"BSTAR":0.000074362152,"MEAN_MOTION_DOT":-9e-7,"MEAN_MOTION_DDOT":0},{"OBJECT_NAME":"GLOBALSTAR M088","OBJECT_ID":"2011-033B","EPOCH":"2026-07-12T01:08:07.585728","CLASSIFICATION_TYPE":"U","MEAN_MOTION":12.6226941,"ECCENTRICITY":0.00000998,"INCLINATION":52.0186,"RA_OF_ASC_NODE":203.3016,"ARG_OF_PERICENTER":156.9399,"MEAN_ANOMALY":237.7264,"EPHEMERIS_TYPE":0,"NORAD_CAT_ID":37740,"ELEMENT_SET_NO":999,"REV_AT_EPOCH":69163,"BSTAR":0.00012258289,"MEAN_MOTION_DOT":-8.2e-7,"MEAN_MOTION_DDOT":0},{"OBJECT_NAME":"GLOBALSTAR M091","OBJECT_ID":"2011-033C","EPOCH":"2026-07-12T07:44:41.405280","CLASSIFICATION_TYPE":"U","MEAN_MOTION":12.62264258,"ECCENTRICITY":0.00003584,"INCLINATION":51.9976,"RA_OF_ASC_NODE":165.391,"ARG_OF_PERICENTER":18.3851,"MEAN_ANOMALY":128.9607,"EPHEMERIS_TYPE":0,"NORAD_CAT_ID":37741,"ELEMENT_SET_NO":999,"REV_AT_EPOCH":69245,"BSTAR":-0.000010440922,"MEAN_MOTION_DOT":-0.00000106,"MEAN_MOTION_DDOT":0},{"OBJECT_NAME":"GLOBALSTAR M085","OBJECT_ID":"2011-033D","EPOCH":"2026-07-12T03:34:42.297024","CLASSIFICATION_TYPE":"U","MEAN_MOTION":12.62264339,"ECCENTRICITY":0.00007222,"INCLINATION":52.0122,"RA_OF_ASC_NODE":117.2336,"ARG_OF_PERICENTER":37.0398,"MEAN_ANOMALY":101.0784,"EPHEMERIS_TYPE":0,"NORAD_CAT_ID":37742,"ELEMENT_SET_NO":999,"REV_AT_EPOCH":69294,"BSTAR":-0.000054729765,"MEAN_MOTION_DOT":-0.00000114,"MEAN_MOTION_DDOT":0},{"OBJECT_NAME":"GLOBALSTAR M081","OBJECT_ID":"2011-033E","EPOCH":"2026-07-12T18:49:51.758976","CLASSIFICATION_TYPE":"U","MEAN_MOTION":12.6226531,"ECCENTRICITY":0.0000616,"INCLINATION":51.9951,"RA_OF_ASC_NODE":117.7063,"ARG_OF_PERICENTER":50.878,"MEAN_ANOMALY":336.3982,"EPHEMERIS_TYPE":0,"NORAD_CAT_ID":37743,"ELEMENT_SET_NO":999,"REV_AT_EPOCH":69317,"BSTAR":-0.00010948,"MEAN_MOTION_DOT":-0.00000123,"MEAN_MOTION_DDOT":0},{"OBJECT_NAME":"GLOBALSTAR M089","OBJECT_ID":"2011-033F","EPOCH":"2026-07-12T01:22:36.488928","CLASSIFICATION_TYPE":"U","MEAN_MOTION":12.62267549,"ECCENTRICITY":0.0000669,"INCLINATION":51.9933,"RA_OF_ASC_NODE":74.0749,"ARG_OF_PERICENTER":86.0364,"MEAN_ANOMALY":55.9244,"EPHEMERIS_TYPE":0,"NORAD_CAT_ID":37744,"ELEMENT_SET_NO":999,"REV_AT_EPOCH":69392,"BSTAR":-0.000016869798,"MEAN_MOTION_DOT":-0.00000107,"MEAN_MOTION_DDOT":0},{"OBJECT_NAME":"GLOBALSTAR M084","OBJECT_ID":"2011-080A","EPOCH":"2026-07-11T08:01:02.931744","CLASSIFICATION_TYPE":"U","MEAN_MOTION":12.62267887,"ECCENTRICITY":0.00009392,"INCLINATION":52.0028,"RA_OF_ASC_NODE":303.7724,"ARG_OF_PERICENTER":123.2364,"MEAN_ANOMALY":270.2173,"EPHEMERIS_TYPE":0,"NORAD_CAT_ID":38040,"ELEMENT_SET_NO":999,"REV_AT_EPOCH":67181,"BSTAR":0.000036683377,"MEAN_MOTION_DOT":-9.7e-7,"MEAN_MOTION_DDOT":0}]}
